start=new Date('2021-12-19T00:00:00.000Z').valueOf();
sats=[{"REF_FRAME":"TEME","REV_AT_EPOCH":"5102","EPOCH":"2021-12-18T12:45:16.701984","MEAN_MOTION":"15.06400205","CENTER_NAME":"EARTH","SITE":"AFETR","LAUNCH_DATE":"2021-01-20","RCS_SIZE":"LARGE","ELEMENT_SET_NO":"999","GP_ID":"191942360","BSTAR":"0.00006304100000","FILE":"3243681","OBJECT_ID":"2021-005BK","NORAD_CAT_ID":"47406","RA_OF_ASC_NODE":"114.6302","MEAN_ANOMALY":"255.3949","TLE_LINE1":"1 47406U 21005BK  21352.53144331  .00000658  00000-0  63041-4 0  9993","OBJECT_NAME":"STARLINK-2133","OBJECT_TYPE":"PAYLOAD","CLASSIFICATION_TYPE":"U","SEMIMAJOR_AXIS":"6925.348","TIME_SYSTEM":"UTC","TLE_LINE2":"2 47406  53.0552 114.6302 0001457 104.7201 255.3949 15.06400205 51020","PERIAPSIS":"546.204","INCLINATION":"53.0552","DECAY_DATE":null,"COUNTRY_CODE":"US","MEAN_MOTION_DDOT":"0.0000000000000","ARG_OF_PERICENTER":"104.7201","PERIOD":"95.592","MEAN_ELEMENT_THEORY":"SGP4","ECCENTRICITY":"0.00014570","APOAPSIS":"548.222","EPHEMERIS_TYPE":"0","MEAN_MOTION_DOT":"0.00000658"},{"ARG_OF_PERICENTER":"95.3650","PERIOD":"95.592","MEAN_ELEMENT_THEORY":"SGP4","ECCENTRICITY":"0.00016690","APOAPSIS":"548.345","EPHEMERIS_TYPE":"0","MEAN_MOTION_DOT":"0.00000604","INCLINATION":"53.0560","DECAY_DATE":null,"COUNTRY_CODE":"US","MEAN_MOTION_DDOT":"0.0000000000000","FILE":"3243776","BSTAR":"0.00005946000000","OBJECT_ID":"2021-005BL","NORAD_CAT_ID":"47407","RA_OF_ASC_NODE":"113.7229","MEAN_ANOMALY":"264.7530","TLE_LINE1":"1 47407U 21005BL  21352.73784494  .00000604  00000-0  59460-4 0  9997","OBJECT_NAME":"STARLINK-2134","OBJECT_TYPE":"PAYLOAD","CLASSIFICATION_TYPE":"U","SEMIMAJOR_AXIS":"6925.324","TIME_SYSTEM":"UTC","TLE_LINE2":"2 47407  53.0560 113.7229 0001669  95.3650 264.7530 15.06408110 51669","PERIAPSIS":"546.033","REV_AT_EPOCH":"5166","EPOCH":"2021-12-18T17:42:29.802816","REF_FRAME":"TEME","MEAN_MOTION":"15.06408110","CENTER_NAME":"EARTH","SITE":"AFETR","LAUNCH_DATE":"2021-01-20","RCS_SIZE":"LARGE","ELEMENT_SET_NO":"999","GP_ID":"191946802"},{"DECAY_DATE":null,"INCLINATION":"53.0554","MEAN_MOTION_DDOT":"0.0000000000000","COUNTRY_CODE":"US","ECCENTRICITY":"0.00016780","MEAN_ELEMENT_THEORY":"SGP4","PERIOD":"95.592","ARG_OF_PERICENTER":"98.1717","MEAN_MOTION_DOT":"0.00000318","EPHEMERIS_TYPE":"0","APOAPSIS":"548.382","SITE":"AFETR","CENTER_NAME":"EARTH","MEAN_MOTION":"15.06397842","EPOCH":"2021-12-18T13:48:58.123872","REF_FRAME":"TEME","REV_AT_EPOCH":"5103","GP_ID":"191941858","ELEMENT_SET_NO":"999","RCS_SIZE":"LARGE","LAUNCH_DATE":"2021-01-20","MEAN_ANOMALY":"261.9462","NORAD_CAT_ID":"47408","RA_OF_ASC_NODE":"114.4326","FILE":"3243681","BSTAR":"0.00004023600000","OBJECT_ID":"2021-005BM","TLE_LINE2":"2 47408  53.0554 114.4326 0001678  98.1717 261.9462 15.06397842 51037","PERIAPSIS":"546.058","TIME_SYSTEM":"UTC","OBJECT_TYPE":"PAYLOAD","SEMIMAJOR_AXIS":"6925.355","CLASSIFICATION_TYPE":"U","OBJECT_NAME":"STARLINK-2135","TLE_LINE1":"1 47408U 21005BM  21352.57567273  .00000318  00000-0  40236-4 0  9997"},{"SITE":"AFETR","MEAN_MOTION":"15.89721994","EPOCH":"2021-12-18T22:00:00.999936","REV_AT_EPOCH":"5024","REF_FRAME":"TEME","CENTER_NAME":"EARTH","GP_ID":"191945258","ELEMENT_SET_NO":"999","RCS_SIZE":"LARGE","LAUNCH_DATE":"2021-01-24","RA_OF_ASC_NODE":"55.6488","NORAD_CAT_ID":"47414","MEAN_ANOMALY":"133.5846","FILE":"3243710","OBJECT_ID":"2021-006B","BSTAR":"-0.00023365000000","OBJECT_TYPE":"PAYLOAD","SEMIMAJOR_AXIS":"6681.199","CLASSIFICATION_TYPE":"U","TLE_LINE2":"2 47414  97.4768  55.6488 0004308 207.7244 133.5846 15.89721994 50246","PERIAPSIS":"300.185","TIME_SYSTEM":"UTC","OBJECT_NAME":"STARLINK-2200","TLE_LINE1":"1 47414U 21006B   21352.91667824 -.00069321  38965-5 -23365-3 0  9996","DECAY_DATE":null,"INCLINATION":"97.4768","COUNTRY_CODE":"US","MEAN_MOTION_DDOT":"0.0000038965000","ECCENTRICITY":"0.00043080","ARG_OF_PERICENTER":"207.7244","MEAN_ELEMENT_THEORY":"SGP4","PERIOD":"90.582","APOAPSIS":"305.942","MEAN_MOTION_DOT":"-0.00069321","EPHEMERIS_TYPE":"0"},{"MEAN_MOTION_DOT":"-0.00100812","EPHEMERIS_TYPE":"0","APOAPSIS":"304.888","MEAN_ELEMENT_THEORY":"SGP4","PERIOD":"90.580","ARG_OF_PERICENTER":"212.5570","ECCENTRICITY":"0.00028390","MEAN_MOTION_DDOT":"0.0000056818000","COUNTRY_CODE":"US","INCLINATION":"97.4981","DECAY_DATE":null,"OBJECT_NAME":"STARLINK-2201","TLE_LINE1":"1 47415U 21006C   21352.91667824 -.00100812  56818-5 -34063-3 0  9992","PERIAPSIS":"301.094","TLE_LINE2":"2 47415  97.4981  51.2510 0002839 212.5570  45.3314 15.89747930 49959","TIME_SYSTEM":"UTC","OBJECT_TYPE":"PAYLOAD","SEMIMAJOR_AXIS":"6681.126","CLASSIFICATION_TYPE":"U","FILE":"3243755","BSTAR":"-0.00034063000000","OBJECT_ID":"2021-006C","MEAN_ANOMALY":"45.3314","NORAD_CAT_ID":"47415","RA_OF_ASC_NODE":"51.2510","RCS_SIZE":"LARGE","ELEMENT_SET_NO":"999","LAUNCH_DATE":"2021-01-24","GP_ID":"191946391","CENTER_NAME":"EARTH","MEAN_MOTION":"15.89747930","EPOCH":"2021-12-18T22:00:00.999936","REV_AT_EPOCH":"4995","REF_FRAME":"TEME","SITE":"AFETR"},{"OBJECT_NAME":"STARLINK-2202","TLE_LINE1":"1 47416U 21006D   21352.58334491  .00664433  00000-0  55663-2 0  9994","TIME_SYSTEM":"UTC","PERIAPSIS":"363.247","TLE_LINE2":"2 47416  97.4971  53.2685 0002269 211.8976 337.2557 15.67947609  3675","CLASSIFICATION_TYPE":"U","OBJECT_TYPE":"PAYLOAD","SEMIMAJOR_AXIS":"6742.912","FILE":"3243681","BSTAR":"0.00556630000000","OBJECT_ID":"2021-006D","MEAN_ANOMALY":"337.2557","RA_OF_ASC_NODE":"53.2685","NORAD_CAT_ID":"47416","LAUNCH_DATE":"2021-01-24","ELEMENT_SET_NO":"999","RCS_SIZE":"LARGE","GP_ID":"191942611","CENTER_NAME":"EARTH","EPOCH":"2021-12-18T14:00:01.000224","REV_AT_EPOCH":"367","REF_FRAME":"TEME","MEAN_MOTION":"15.67947609","SITE":"AFETR","EPHEMERIS_TYPE":"0","MEAN_MOTION_DOT":"0.00664433","APOAPSIS":"366.307","PERIOD":"91.840","MEAN_ELEMENT_THEORY":"SGP4","ARG_OF_PERICENTER":"211.8976","ECCENTRICITY":"0.00022690","MEAN_MOTION_DDOT":"0.0000000000000","COUNTRY_CODE":"US","INCLINATION":"97.4971","DECAY_DATE":null},{"APOAPSIS":"300.110","EPHEMERIS_TYPE":"0","MEAN_MOTION_DOT":"0.00750223","ARG_OF_PERICENTER":"220.9549","PERIOD":"90.499","MEAN_ELEMENT_THEORY":"SGP4","ECCENTRICITY":"0.00016990","COUNTRY_CODE":"US","MEAN_MOTION_DDOT":"0.0002305400000","INCLINATION":"97.4952","DECAY_DATE":null,"OBJECT_NAME":"STARLINK-2204","TLE_LINE1":"1 47418U 21006F   21352.91667824  .00750223  23054-3  23853-2 0  9998","SEMIMAJOR_AXIS":"6677.111","OBJECT_TYPE":"PAYLOAD","CLASSIFICATION_TYPE":"U","TIME_SYSTEM":"UTC","PERIAPSIS":"297.841","TLE_LINE2":"2 47418  97.4952  51.2267 0001699 220.9549  34.2604 15.91182068 49958","BSTAR":"0.00238530000000","FILE":"3243865","OBJECT_ID":"2021-006F","RA_OF_ASC_NODE":"51.2267","NORAD_CAT_ID":"47418","MEAN_ANOMALY":"34.2604","LAUNCH_DATE":"2021-01-24","ELEMENT_SET_NO":"999","RCS_SIZE":"LARGE","GP_ID":"191948952","REF_FRAME":"TEME","EPOCH":"2021-12-18T22:00:00.999936","REV_AT_EPOCH":"4995","MEAN_MOTION":"15.91182068","CENTER_NAME":"EARTH","SITE":"AFETR"},{"COUNTRY_CODE":"US","MEAN_MOTION_DDOT":"0.0000668320000","DECAY_DATE":null,"INCLINATION":"97.4754","APOAPSIS":"302.814","MEAN_MOTION_DOT":"0.00414635","EPHEMERIS_TYPE":"0","ECCENTRICITY":"0.00033690","ARG_OF_PERICENTER":"203.2784","MEAN_ELEMENT_THEORY":"SGP4","PERIOD":"90.531","GP_ID":"191945291","ELEMENT_SET_NO":"999","RCS_SIZE":"LARGE","LAUNCH_DATE":"2021-01-24","SITE":"AFETR","MEAN_MOTION":"15.90614544","EPOCH":"2021-12-18T22:00:00.999936","REF_FRAME":"TEME","REV_AT_EPOCH":"5024","CENTER_NAME":"EARTH","CLASSIFICATION_TYPE":"U","OBJECT_TYPE":"PAYLOAD","SEMIMAJOR_AXIS":"6678.699","PERIAPSIS":"298.314","TLE_LINE2":"2 47419  97.4754  55.5984 0003369 203.2784  13.6293 15.90614544 50240","TIME_SYSTEM":"UTC","TLE_LINE1":"1 47419U 21006G   21352.91667824  .00414635  66832-4  13543-2 0  9990","OBJECT_NAME":"STARLINK-2205","NORAD_CAT_ID":"47419","RA_OF_ASC_NODE":"55.5984","MEAN_ANOMALY":"13.6293","FILE":"3243712","BSTAR":"0.00135430000000","OBJECT_ID":"2021-006G"},{"ECCENTRICITY":"0.00035340","MEAN_ELEMENT_THEORY":"SGP4","PERIOD":"90.520","ARG_OF_PERICENTER":"204.8078","MEAN_MOTION_DOT":"0.00533328","EPHEMERIS_TYPE":"0","APOAPSIS":"302.399","DECAY_DATE":null,"INCLINATION":"97.4766","MEAN_MOTION_DDOT":"0.0001118900000","COUNTRY_CODE":"US","MEAN_ANOMALY":"128.9314","NORAD_CAT_ID":"47420","RA_OF_ASC_NODE":"55.6396","FILE":"3243712","OBJECT_ID":"2021-006H","BSTAR":"0.00172580000000","TLE_LINE2":"2 47420  97.4766  55.6396 0003534 204.8078 128.9314 15.90802312 50246","PERIAPSIS":"297.678","TIME_SYSTEM":"UTC","SEMIMAJOR_AXIS":"6678.174","OBJECT_TYPE":"PAYLOAD","CLASSIFICATION_TYPE":"U","TLE_LINE1":"1 47420U 21006H   21352.91667824  .00533328  11189-3  17258-2 0  9994","OBJECT_NAME":"STARLINK-2206","SITE":"AFETR","CENTER_NAME":"EARTH","MEAN_MOTION":"15.90802312","REV_AT_EPOCH":"5024","REF_FRAME":"TEME","EPOCH":"2021-12-18T22:00:00.999936","GP_ID":"191944966","RCS_SIZE":"LARGE","ELEMENT_SET_NO":"999","LAUNCH_DATE":"2021-01-24"},{"ECCENTRICITY":"0.00032200","ARG_OF_PERICENTER":"202.1781","MEAN_ELEMENT_THEORY":"SGP4","PERIOD":"90.512","APOAPSIS":"301.800","MEAN_MOTION_DOT":"0.00570387","EPHEMERIS_TYPE":"0","DECAY_DATE":null,"INCLINATION":"97.4757","COUNTRY_CODE":"US","MEAN_MOTION_DDOT":"0.0001288400000","RA_OF_ASC_NODE":"55.5119","NORAD_CAT_ID":"47421","MEAN_ANOMALY":"186.3344","BSTAR":"0.00183320000000","FILE":"3243713","OBJECT_ID":"2021-006J","CLASSIFICATION_TYPE":"U","OBJECT_TYPE":"PAYLOAD","SEMIMAJOR_AXIS":"6677.785","PERIAPSIS":"297.500","TLE_LINE2":"2 47421  97.4757  55.5119 0003220 202.1781 186.3344 15.90941158 50235","TIME_SYSTEM":"UTC","TLE_LINE1":"1 47421U 21006J   21352.91667824  .00570387  12884-3  18332-2 0  9998","OBJECT_NAME":"STARLINK-2207","SITE":"AFETR","MEAN_MOTION":"15.90941158","REF_FRAME":"TEME","EPOCH":"2021-12-18T22:00:00.999936","REV_AT_EPOCH":"5023","CENTER_NAME":"EARTH","GP_ID":"191945310","RCS_SIZE":"LARGE","ELEMENT_SET_NO":"999","LAUNCH_DATE":"2021-01-24"}];
